NORAD_CAT_ID,OBJECT_NAME,OBJECT_TYPE,EPOCH,MEAN_MOTION,ECCENTRICITY,INCLINATION,RA_OF_ASC_NODE,ARG_OF_PERICENTER,MEAN_ANOMALY,BSTAR,MEAN_MOTION_DOT,MEAN_MOTION_DDOT,TLE_LINE0,TLE_LINE1,TLE_LINE2,SEMIMAJOR_AXIS,PERIOD,APOGEE,PERIGEE,DECAYED
54104.0,STARLINK-5203,PAYLOAD,2023-04-16 02:05:19,15.08853151,9.41e-05,53.2215,11.2406,86.8648,273.2452,4.1548e-05,3.74e-06,0.0,0 STARLINK-5203,1 54104U 22136BF  23106.08703644  .00000374  00000-0  41548-4 0  9992,2 54104  53.2215  11.2406 0000941  86.8648 273.2452 15.08853151 28138,6917.84,95.437,540.356,539.054,0.0
54104.0,STARLINK-5203,PAYLOAD,2023-04-16 17:59:12,15.08838699,0.0001258,53.2215,8.2693,92.0547,268.0589,5.3824e-05,5.69e-06,0.0,0 STARLINK-5203,1 54104U 22136BF  23106.74944901  .00000569  00000-0  53824-4 0  9994,2 54104  53.2215   8.2693 0001258  92.0547 268.0589 15.08838699 28235,6917.884,95.438,540.62,538.879,0.0
54104.0,STARLINK-5203,PAYLOAD,2023-04-16 21:09:58,15.08835578,0.0001132,53.2217,7.676,89.5458,270.5664,0.00024115,3.552e-05,0.0,0 STARLINK-5203,1 54104U 22136BF  23106.88192888  .00003552  00000-0  24115-3 0  9993,2 54104  53.2217   7.6760 0001132  89.5458 270.5664 15.08835578 27782,6917.894,95.438,540.542,538.976,0.0
54104.0,STARLINK-5203,PAYLOAD,2023-04-17 03:31:30,15.08850029,0.0001069,53.2203,6.4819,97.7209,262.3904,0.00024433,3.604e-05,0.0,0 STARLINK-5203,1 54104U 22136BF  23107.14688049  .00003604  00000-0  24433-3 0  9993,2 54104  53.2203   6.4819 0001069  97.7209 262.3904 15.08850029 28294,6917.85,95.437,540.454,538.975,0.0
54104.0,STARLINK-5203,PAYLOAD,2023-04-17 17:49:59,15.08840449,0.0001235,53.2201,3.8049,93.7727,266.3406,-7.9026e-05,-1.545e-05,0.0,0 STARLINK-5203,1 54104U 22136BF  23107.74304632 -.00001545  00000-0 -79026-4 0  9995,2 54104  53.2201   3.8049 0001235  93.7727 266.3406 15.08840449 28380,6917.879,95.438,540.598,538.89,0.0
54104.0,STARLINK-5203,PAYLOAD,2023-04-17 21:00:45,15.08836778,0.0001153,53.2207,3.2138,95.8071,264.3053,-8.1838e-05,-1.59e-05,0.0,0 STARLINK-5203,1 54104U 22136BF  23107.87552843 -.00001590  00000-0 -81838-4 0  9992,2 54104  53.2207   3.2138 0001153  95.8071 264.3053 15.08836778 27939,6917.89,95.438,540.553,538.958,0.0
54104.0,STARLINK-5203,PAYLOAD,2023-04-18 01:46:54,15.0884411,0.0001099,53.2197,2.3189,91.5268,268.585,7.652e-06,-1.66e-06,0.0,0 STARLINK-5203,1 54104U 22136BF  23108.07424437 -.00000166  00000-0  76520-5 0  9992,2 54104  53.2197   2.3189 0001099  91.5268 268.5850 15.08844110 27966,6917.868,95.437,540.493,538.973,0.0
54104.0,STARLINK-5203,PAYLOAD,2023-04-19 03:13:05,15.08845129,9.98e-05,53.2189,357.561,89.1268,270.9838,0.00012434,1.692e-05,0.0,0 STARLINK-5203,1 54104U 22136BF  23109.13408806  .00001692  00000-0  12434-3 0  9998,2 54104  53.2189 357.5610 0000998  89.1268 270.9838 15.08845129 28124,6917.865,95.437,540.42,539.039,0.0
54104.0,STARLINK-5203,PAYLOAD,2023-04-20 01:28:28,15.08855124,0.000117,53.2195,353.3971,82.4016,277.7109,0.00033939,5.12e-05,0.0,0 STARLINK-5203,1 54104U 22136BF  23110.06144309  .00005120  00000-0  33939-3 0  9990,2 54104  53.2195 353.3971 0001170  82.4016 277.7109 15.08855124 28262,6917.834,95.437,540.509,538.89,0.0
54104.0,STARLINK-5203,PAYLOAD,2023-04-20 22:08:30,15.08839021,0.000112,53.2192,349.5323,85.1875,274.9244,-1.2498e-05,-4.87e-06,0.0,0 STARLINK-5203,1 54104U 22136BF  23110.92257040 -.00000487  00000-0 -12498-4 0  9993,2 54104  53.2192 349.5323 0001120  85.1875 274.9244 15.08839021 28396,6917.883,95.438,540.523,538.974,0.0
54104.0,STARLINK-5203,PAYLOAD,2023-04-21 01:19:16,15.08840112,0.0001347,53.2201,348.9373,80.0193,280.0951,3.6469e-05,2.93e-06,0.0,0 STARLINK-5203,1 54104U 22136BF  23111.05505229  .00000293  00000-0  36469-4 0  9990,2 54104  53.2201 348.9373 0001347  80.0193 280.0951 15.08840112 28883,6917.88,95.438,540.677,538.813,0.0
54104.0,STARLINK-5203,PAYLOAD,2023-04-21 09:16:12,15.08841053,0.0001252,53.2194,347.4507,85.2812,274.8323,7.7895e-05,9.52e-06,0.0,0 STARLINK-5203,1 54104U 22136BF  23111.38625079  .00000952  00000-0  77895-4 0  9992,2 54104  53.2194 347.4507 0001252  85.2812 274.8323 15.08841053 28460,6917.877,95.437,540.608,538.876,0.0
54104.0,STARLINK-5203,PAYLOAD,2023-04-21 15:37:44,15.08841657,0.0001221,53.2188,346.2624,86.1075,274.0057,0.00013628,1.882e-05,0.0,0 STARLINK-5203,1 54104U 22136BF  23111.65121114  .00001882  00000-0  13628-3 0  9999,2 54104  53.2188 346.2624 0001221  86.1075 274.0057 15.08841657 28508,6917.875,95.437,540.585,538.896,0.0
54104.0,STARLINK-5203,PAYLOAD,2023-04-22 01:10:03,15.08852934,0.0001195,53.2174,344.4789,85.8617,274.2512,0.00028847,4.308e-05,0.0,0 STARLINK-5203,1 54104U 22136BF  23112.04864604  .00004308  00000-0  28847-3 0  9996,2 54104  53.2174 344.4789 0001195  85.8617 274.2512 15.08852934 29030,6917.841,95.437,540.533,538.879,0.0
54104.0,STARLINK-5203,PAYLOAD,2023-04-22 15:28:31,15.08842928,0.0001212,53.2181,341.8019,80.4841,279.6288,0.00020175,2.925e-05,0.0,0 STARLINK-5203,1 54104U 22136BF  23112.64481081  .00002925  00000-0  20175-3 0  9995,2 54104  53.2181 341.8019 0001212  80.4841 279.6288 15.08842928 29126,6917.871,95.437,540.575,538.898,0.0
54104.0,STARLINK-5203,PAYLOAD,2023-04-22 20:14:41,15.08843049,0.0001217,53.2188,340.9094,83.945,276.1681,0.00014988,2.098e-05,0.0,0 STARLINK-5203,1 54104U 22136BF  23112.84353039  .00002098  00000-0  14988-3 0  9994,2 54104  53.2188 340.9094 0001217  83.9450 276.1681 15.08843049 28689,6917.871,95.437,540.578,538.894,0.0
54104.0,STARLINK-5203,PAYLOAD,2023-04-23 15:19:18,15.08837944,0.0001148,53.2178,337.3408,84.2193,275.893,5.8509e-05,6.43e-06,0.0,0 STARLINK-5203,1 54104U 22136BF  23113.63841426  .00000643  00000-0  58509-4 0  9996,2 54104  53.2178 337.3408 0001148  84.2193 275.8930 15.08837944 29274,6917.887,95.438,540.546,538.957,0.0
54104.0,STARLINK-5203,PAYLOAD,2023-04-23 21:40:51,15.08852994,0.000124,53.2186,336.1517,90.7634,269.35,0.00019879,2.878e-05,0.0,0 STARLINK-5203,1 54104U 22136BF  23113.90336874  .00002878  00000-0  19879-3 0  9990,2 54104  53.2186 336.1517 0001240  90.7634 269.3500 15.08852994 29314,6917.841,95.437,540.563,538.848,0.0
54104.0,STARLINK-5203,PAYLOAD,2023-04-24 15:10:04,15.08866621,0.0001191,53.2193,332.8826,90.1445,269.9683,0.00050235,7.722e-05,0.0,0 STARLINK-5203,1 54104U 22136BF  23114.63199677  .00007722  00000-0  50235-3 0  9993,2 54104  53.2193 332.8826 0001191  90.1445 269.9683 15.08866621 28956,6917.799,95.436,540.488,538.84,0.0
54104.0,STARLINK-5203,PAYLOAD,2023-04-25 00:42:22,15.08887046,0.0001262,53.2196,331.099,93.9643,266.1494,0.000876,0.00013699,0.0,0 STARLINK-5203,1 54104U 22136BF  23115.02942642  .00013699  00000-0  87600-3 0  9991,2 54104  53.2196 331.0990 0001262  93.9643 266.1494 15.08887046 29013,6917.737,95.435,540.475,538.729,0.0
54104.0,STARLINK-5203,PAYLOAD,2023-04-26 00:33:12,15.08802296,0.0001725,53.2207,326.6363,89.3646,270.7544,-4.2936e-05,-9.71e-06,0.0,0 STARLINK-5203,1 54104U 22136BF  23116.02306134 -.00000971  00000-0 -42936-4 0  9997,2 54104  53.2207 326.6363 0001725  89.3646 270.7544 15.08802296 29163,6917.996,95.44,541.054,538.667,0.0
54104.0,STARLINK-5203,PAYLOAD,2023-04-26 16:27:04,15.08819023,0.0001319,53.2182,323.6654,120.7824,239.3299,0.00076828,0.00011953,0.0,0 STARLINK-5203,1 54104U 22136BF  23116.68547135  .00011953  00000-0  76828-3 0  9993,2 54104  53.2182 323.6654 0001319 120.7824 239.3299 15.08819023 29267,6917.945,95.439,540.722,538.897,0.0
54104.0,STARLINK-5203,PAYLOAD,2023-04-27 01:59:23,15.08827274,7.87e-05,53.2182,321.8817,163.2087,196.8931,0.00037229,5.64e-05,0.0,0 STARLINK-5203,1 54104U 22136BF  23117.08291174  .00005640  00000-0  37229-3 0  9995,2 54104  53.2182 321.8817 0000787 163.2087 196.8931 15.08827274 29323,6917.919,95.438,540.329,539.24,0.0
54104.0,STARLINK-5203,PAYLOAD,2023-04-27 17:53:14,15.08852983,7.68e-05,53.2186,318.9092,140.2244,219.8805,0.00086976,0.00013586,0.0,0 STARLINK-5203,1 54104U 22136BF  23117.74531145  .00013586  00000-0  86976-3 0  9994,2 54104  53.2186 318.9092 0000768 140.2244 219.8805 15.08852983 29891,6917.841,95.437,540.237,539.174,0.0
54104.0,STARLINK-5203,PAYLOAD,2023-04-28 06:36:19,15.08852249,7.48e-05,53.2186,316.5309,107.849,252.2583,0.00046915,7.189e-05,0.0,0 STARLINK-5203,1 54104U 22136BF  23118.27522980  .00007189  00000-0  46915-3 0  9991,2 54104  53.2186 316.5309 0000748 107.8490 252.2583 15.08852249 29974,6917.843,95.437,540.225,539.19,0.0
54104.0,STARLINK-5203,PAYLOAD,2023-04-29 12:48:38,15.08854725,0.0001803,53.218,310.8816,73.1244,286.9946,0.00023986,3.533e-05,0.0,0 STARLINK-5203,1 54104U 22136BF  23119.53378162  .00003533  00000-0  23986-3 0  9994,2 54104  53.2180 310.8816 0001803  73.1244 286.9946 15.08854725 29690,6917.835,95.437,540.948,538.453,0.0
54104.0,STARLINK-5203,PAYLOAD,2023-04-29 19:10:11,15.0885404,0.0001061,53.2183,309.6887,107.1077,253.0032,0.00016938,2.41e-05,0.0,0 STARLINK-5203,1 54104U 22136BF  23119.79873935  .00002410  00000-0  16938-3 0  9992,2 54104  53.2183 309.6887 0001061 107.1077 253.0032 15.08854040 30205,6917.837,95.437,540.436,538.968,0.0
54104.0,STARLINK-5203,PAYLOAD,2023-04-29 23:56:20,15.08856009,0.0001109,53.2179,308.7974,97.2504,262.8614,0.00021177,3.086e-05,0.0,0 STARLINK-5203,1 54104U 22136BF  23119.99745752  .00003086  00000-0  21177-3 0  9990,2 54104  53.2179 308.7974 0001109  97.2504 262.8614 15.08856009 29764,6917.831,95.437,540.464,538.929,0.0
54104.0,STARLINK-5203,PAYLOAD,2023-04-30 14:14:48,15.0884718,0.0001627,53.2177,306.1235,76.2558,283.8615,2.6114e-05,1.28e-06,0.0,0 STARLINK-5203,1 54104U 22136BF  23120.59362024  .00000128  00000-0  26114-4 0  9996,2 54104  53.2177 306.1235 0001627  76.2558 283.8615 15.08847180 30323,6917.858,95.437,540.849,538.598,0.0
54104.0,STARLINK-5203,PAYLOAD,2023-05-01 12:30:12,15.08849781,0.0001066,53.2187,301.9576,107.4425,252.6684,0.00016106,2.277e-05,0.0,0 STARLINK-5203,1 54104U 22136BF  23121.52097425  .00002277  00000-0  16106-3 0  9996,2 54104  53.2187 301.9576 0001066 107.4425 252.6684 15.08849781 29992,6917.85,95.437,540.453,538.978,0.0
